ESEO                    
1 43792U 18099AL  26068.65529582  .00002831  00000+0  20935-3 0  9991
2 43792  97.4113 110.2601 0011063 317.6000  42.4371 15.03914518396849
STARLINK-35050          
1 65440U 25194G   26068.56939296  .00011415  00000+0  79353-3 0  9992
2 65440  97.6015 284.3372 0001438  68.2557 291.8822 15.05673487 29635
